{
    "links": {
        "self": "http://www.neowsapp.com/rest/v1/neo/3781329?api_key=iIulBulltgU6a56xZRHN4H3l9WmuAYTsLGpBGhQ2"
    },
    "id": "3781329",
    "neo_reference_id": "3781329",
    "name": "(2017 RF)",
    "designation": "2017 RF",
    "nasa_jpl_url": "http://ssd.jpl.nasa.gov/sbdb.cgi?sstr=3781329",
    "absolute_magnitude_h": 25.0,
    "estimated_diameter": {
        "kilometers": {
            "estimated_diameter_min": 0.02658,
            "estimated_diameter_max": 0.0594346868
        },
        "meters": {
            "estimated_diameter_min": 26.58,
            "estimated_diameter_max": 59.4346868419
        },
        "miles": {
            "estimated_diameter_min": 0.0165160412,
            "estimated_diameter_max": 0.0369309908
        },
        "feet": {
            "estimated_diameter_min": 87.2047272,
            "estimated_diameter_max": 194.9956979785
        }
    },
    "is_potentially_hazardous_asteroid": false,
    "close_approach_data": [
        {
            "close_approach_date": "2014-09-06",
            "close_approach_date_full": "2014-Sep-06 04:38",
            "epoch_date_close_approach": 1409978280000,
            "relative_velocity": {
                "kilometers_per_second": "15.4475967685",
                "kilometers_per_hour": "55611.3483664315",
                "miles_per_hour": "34554.729211353"
            },
            "miss_distance": {
                "astronomical": "0.4544180043",
                "lunar": "176.7686036727",
                "kilometers": "67979965.532930841",
                "miles": "42240791.8506179658"
            },
            "orbiting_body": "Earth"
        },
        {
            "close_approach_date": "2017-08-29",
            "close_approach_date_full": "2017-Aug-29 03:51",
            "epoch_date_close_approach": 1503978660000,
            "relative_velocity": {
                "kilometers_per_second": "8.7323577303",
                "kilometers_per_hour": "31436.4878291896",
                "miles_per_hour": "19533.4110069762"
            },
            "miss_distance": {
                "astronomical": "0.0761156086",
                "lunar": "29.6089717454",
                "kilometers": "11386732.920313682",
                "miles": "7075387.7465935316"
            },
            "orbiting_body": "Earth"
        },
        {
            "close_approach_date": "2020-08-30",
            "close_approach_date_full": "2020-Aug-30 19:34",
            "epoch_date_close_approach": 1598816040000,
            "relative_velocity": {
                "kilometers_per_second": "12.5750901331",
                "kilometers_per_hour": "45270.3244792082",
                "miles_per_hour": "28129.2191187614"
            },
            "miss_distance": {
                "astronomical": "0.4493290026",
                "lunar": "174.7889820114",
                "kilometers": "67218661.718184462",
                "miles": "41767739.5958590956"
            },
            "orbiting_body": "Earth"
        },
        {
            "close_approach_date": "2178-09-03",
            "close_approach_date_full": "2178-Sep-03 19:00",
            "epoch_date_close_approach": 6585130800000,
            "relative_velocity": {
                "kilometers_per_second": "11.3796225007",
                "kilometers_per_hour": "40966.6410026849",
                "miles_per_hour": "25455.0775719183"
            },
            "miss_distance": {
                "astronomical": "0.2566705265",
                "lunar": "99.8448348085",
                "kilometers": "38397364.056178555",
                "miles": "23859015.667251859"
            },
            "orbiting_body": "Earth"
        },
        {
            "close_approach_date": "2181-08-28",
            "close_approach_date_full": "2181-Aug-28 08:19",
            "epoch_date_close_approach": 6679268340000,
            "relative_velocity": {
                "kilometers_per_second": "9.518362083",
                "kilometers_per_hour": "34266.1034988721",
                "miles_per_hour": "21291.6241435075"
            },
            "miss_distance": {
                "astronomical": "0.212015957",
                "lunar": "82.474207273",
                "kilometers": "31717135.57321159",
                "miles": "19708114.167796342"
            },
            "orbiting_body": "Earth"
        }
    ],
    "orbital_data": {
        "orbit_id": "1",
        "orbit_determination_date": "2017-09-03 09:42:03",
        "first_observation_date": "2017-09-01",
        "last_observation_date": "2017-09-03",
        "data_arc_in_days": 2,
        "observations_used": 22,
        "orbit_uncertainty": "8",
        "minimum_orbit_intersection": ".0761025",
        "jupiter_tisserand_invariant": "4.978",
        "epoch_osculation": "2457998.5",
        "eccentricity": ".1601011605538493",
        "semi_major_axis": "1.289447436745229",
        "inclination": "16.33895405817945",
        "ascending_node_longitude": "337.7023614840774",
        "orbital_period": "534.8153844453036",
        "perihelion_distance": "1.083005405649132",
        "perihelion_argument": "347.9511391135755",
        "aphelion_distance": "1.495889467841327",
        "perihelion_time": "2457984.027250425774",
        "mean_anomaly": "9.742034351022326",
        "mean_motion": ".673129476956581",
        "equinox": "J2000",
        "orbit_class": {
            "orbit_class_type": "AMO",
            "orbit_class_description": "Near-Earth asteroid orbits similar to that of 1221 Amor",
            "orbit_class_range": "1.017 AU < q (perihelion) < 1.3 AU"
        }
    },
    "is_sentry_object": false
}